ONEWEB-0555             
1 56057U 23043M   24253.84108781  .00000022  00000+0  24005-4 0  9996
2 56057  87.9172 357.2859 0001983  81.2082 278.9273 13.16593534 74043
ONEWEB-0557             
1 56058U 23043N   24253.85533614 -.00000030  00000+0 -11259-3 0  9992
2 56058  87.9172 357.3079 0001769  66.8169 293.3148 13.16593704 74047
ONEWEB-0558             
1 56059U 23043P   24253.90364493  .00000321  00000+0  74547-3 0  9996
2 56059  87.9338  12.4613 0001917 122.9436 237.1883 13.21849765 72992
ONEWEB-0559             
1 56060U 23043Q   24253.89261930  .00000134  00000+0  29390-3 0  9996
2 56060  87.9352  12.4582 0001479 116.6362 243.4924 13.21823687 73000
ONEWEB-0566             
1 56061U 23043R   24253.88632499  .00000090  00000+0  18736-3 0  9991
2 56061  87.9352  12.4599 0002051 119.2435 240.8904 13.21825329 72986
ONEWEB-0568             
1 56062U 23043S   24253.79675624  .00000036  00000+0  59720-4 0  9998
2 56062  87.9173 357.2843 0001951  92.5922 267.5432 13.16592784 74054
ONEWEB-0574             
1 56063U 23043T   24254.03140665  .00000078  00000+0  15735-3 0  9992
2 56063  87.9350  12.4243 0001982  99.7606 260.3752 13.21825639 73956
ONEWEB-0575             
1 56064U 23043U   24253.79040462  .00000015  00000+0  47705-5 0  9994
2 56064  87.9172 357.2955 0001551  84.6024 275.5284 13.16590758 74042
ONEWEB-0576             
1 56065U 23043V   24254.22740651  .00000002  00000+0 -28869-4 0  9997
2 56065  87.9170 357.2047 0001863  88.2196 271.9148 13.16594385 75005
ONEWEB-0577             
1 56066U 23043W   24253.85373706 -.00000026  00000+0 -10100-3 0  9994
2 56066  87.9171 357.2783 0001364  77.4738 282.6545 13.16591423 74078
ONEWEB-0578             
1 56067U 23043X   24254.09448807  .00000042  00000+0  70161-4 0  9997
2 56067  87.9352  12.4129 0001873  94.8266 265.3082 13.21826377 73920
ONEWEB-0579             
1 56068U 23043Y   24253.85792468  .00000073  00000+0  14434-3 0  9990
2 56068  87.9352  12.4545 0001602 112.1409 247.9895 13.21827607 72997
ONEWEB-0581             
1 56069U 23043Z   24253.86007739 -.00000296  00000+0 -80680-3 0  9997
2 56069  87.9171 357.3067 0001242  96.5376 263.5896 13.16593249 74044
ONEWEB-0609             
1 56070U 23043AA  24254.14153871  .00000147  00000+0  35639-3 0  9997
2 56070  87.9084  27.5759 0001780 100.9192 259.2139 13.15551583 72534
ONEWEB-0613             
1 56071U 23043AB  24253.90864422  .00000189  00000+0  46800-3 0  9990
2 56071  87.9090  27.6217 0001616 109.4035 250.7270 13.15550045 71599
ONEWEB-0630             
1 56072U 23043AC  24254.13205751  .00008987  00000+0  23829-1 0  9999
2 56072  87.9086  27.5651 0002136 119.8959 240.2383 13.15507256 72523
ONEWEB-0632             
1 56073U 23043AD  24254.12728062 -.00000370  00000+0 -10174-2 0  9994
2 56073  87.9084  27.5850 0001397  97.3693 262.7596 13.15547389 72522
ONEWEB-0633             
1 56074U 23043AE  24254.12094155  .00000166  00000+0  40731-3 0  9998
2 56074  87.9081  27.5646 0001947 114.8651 245.2681 13.15551395 72504
ONEWEB-0634             
1 56075U 23043AF  24254.10668639 -.00000014  00000+0 -72266-4 0  9994
2 56075  87.9089  27.5840 0002113  98.5886 261.5484 13.15544996 72492
ONEWEB-0635             
1 56076U 23043AG  24253.87376537 -.00000073  00000+0 -22774-3 0  9994
2 56076  87.9086  27.6829 0001297  94.2943 265.8336 13.15550929 71582
ONEWEB-0636             
1 56077U 23043AH  24253.94189327 -.00000461  00000+0 -12581-2 0  9997
2 56077  87.9085  27.6395 0001366  94.9935 265.1351 13.15547350 71578
ONEWEB-0637             
1 56078U 23043AJ  24253.93556036 -.00000205  00000+0 -57964-3 0  9993
2 56078  87.9087  27.6187 0001416  90.3753 269.7539 13.15545648 71592
ONEWEB-0647             
1 56079U 23043AK  24253.93082831 -.00000052  00000+0 -17261-3 0  9997
2 56079  87.9085  27.6360 0001485 102.6650 257.4646 13.15546357 71583
ONEWEB-0651             
1 56080U 23043AL  24253.92607067  .00000042  00000+0  77600-4 0  9993
2 56080  87.9087  27.6165 0001472  86.9349 273.1950 13.15547167 72781
ONEWEB-0718             
1 56081U 23043AM  24254.07341917  .00000154  00000+0  37600-3 0  9999
2 56081  87.9087  27.5727 0002299  95.5160 264.6232 13.15550668 72520
ONEWEB-0561             
1 56710U 23068A   24254.12871165  .00000143  00000+0  31958-3 0  9992
2 56710  87.9237  42.7888 0001085  92.2819 267.8438 13.20769118 65051
ONEWEB-0668             
1 56711U 23068B   24253.78645703  .00000031  00000+0  46290-4 0  9993
2 56711  87.9160 357.2967 0002237  94.1824 265.9563 13.16595320 66850
ONEWEB-0676             
1 56712U 23068C   24253.84266359  .00000079  00000+0  17191-3 0  9996
2 56712  87.9171 357.2973 0001248  98.4480 261.6793 13.16592487 66787
ONEWEB-0677             
1 56713U 23068D   24253.89037612 -.00000463  00000+0 -11705-2 0  9993
2 56713  87.9215  42.8172 0001657  86.0663 274.0660 13.20769889 64624
ONEWEB-0678             
1 56714U 23068E   24253.88960073  .00000114  00000+0  26958-3 0  9997
2 56714  87.9089  27.5751 0001567 108.8322 251.2978 13.15551465 64444
ONEWEB-0679             
1 56715U 23068F   24253.81179892  .00000194  00000+0  47330-3 0  9997
2 56715  87.9169 357.3042 0001881  78.8989 281.2353 13.16593805 66802
ONEWEB-0680             
1 56716U 23068G   24254.08818285  .00000016  00000+0  67422-5 0  9993
2 56716  87.9354  12.4587 0002468  87.6744 272.4673 13.21825745 66579
ONEWEB-0681             
1 56717U 23068H   24254.09838714  .00000117  00000+0  25130-3 0  9994
2 56717  87.9351  12.4354 0000999  64.3480 295.7757 13.21831048 66568
ONEWEB-0682             
1 56718U 23068J   24253.91574819  .00000185  00000+0  45759-3 0  9992
2 56718  87.9087  27.6095 0002096  84.7359 275.4011 13.15550690 64612
ONEWEB-0683             
1 56719U 23068K   24253.93716259 -.00000089  00000+0 -27152-3 0  9993
2 56719  87.9085  27.5773 0001991  91.0633 269.0726 13.15546717 64585
ONEWEB-0684             
1 56720U 23068L   24253.86900786 -.00000477  00000+0 -13008-2 0  9992
2 56720  87.9087  27.6676 0002502 135.6093 224.5238 13.15547504 64406
ONEWEB-0686             
1 56721U 23068M   24253.80149493  .00000098  00000+0  22187-3 0  9993
2 56721  87.9169 357.3426 0001940 102.8149 257.3199 13.16591167 66796
ONEWEB-0694             
1 56722U 23068N   24253.83710959  .00000081  00000+0  17824-3 0  9992
2 56722  87.9166 357.2539 0002069  90.2700 269.8668 13.16591207 66855
ONEWEB-0696             
1 56723U 23068P   24254.13046397  .00000161  00000+0  39395-3 0  9991
2 56723  87.9086  27.5898 0001535 105.1035 255.0265 13.15551849 65256
ONEWEB-0703             
1 56724U 23068Q   24253.91180905  .00000205  00000+0  50986-3 0  9999
2 56724  87.9085  27.6537 0001059 144.3071 215.8131 13.15547723 64412
ONEWEB-0721             
1 56725U 23068R   24253.65208733  .00001993  00000+0  22452-3 0  9993
2 56725  86.6743 300.7429 0008908 343.3324  16.7607 14.86094936 71053
